{
  "type": "FeatureCollection",
  "features": [
    {
      "type": "Feature",
      "properties": {
        "norad_id": 44333,
        "name": "AT&T T-16",
        "group": "intelsat",
        "lat": -0.0287042881068463,
        "lon": -55.160643397186284,
        "alt_km": 35788.99690869642,
        "timestamp": "2025-12-10T21:43:21.754568+00:00",
        "meta_object_name": "AT&T T-16",
        "meta_object_id": "2019-034A",
        "meta_epoch": "2025-12-10T08:50:38.677344",
        "meta_mean_motion": 1.00268562,
        "meta_eccentricity": 5.257e-05,
        "meta_inclination": 0.0278,
        "meta_ra_of_asc_node": 70.8283,
        "meta_arg_of_pericenter": 79.3328,
        "meta_mean_anomaly": 320.9769,
        "meta_ephemeris_type": 0,
        "meta_classification_type": "U",
        "meta_norad_cat_id": 44333,
        "meta_element_set_no": 999,
        "meta_rev_at_epoch": 2374,
        "meta_bstar": 0,
        "meta_mean_motion_dot": -1.11e-06,
        "meta_mean_motion_ddot": 0,
        "tle_line1": "1 44333U 19034A   25344.36850321 -.00000111  00000+0  00000+0 0  9992",
        "tle_line2": "2 44333   0.0278  70.8283 0000525  79.3328 320.9769  1.00268562 23740"
      },
      "geometry": {
        "type": "Point",
        "coordinates": [
          -55.160643397186284,
          -0.0287042881068463
        ]
      }
    },
    {
      "type": "Feature",
      "properties": {
        "norad_id": 44476,
        "name": "INTELSAT 39 (IS-39)",
        "group": "intelsat",
        "lat": 0.02421483387739506,
        "lon": 107.6472861160836,
        "alt_km": 35783.36493768449,
        "timestamp": "2025-12-10T21:43:21.754579+00:00",
        "meta_object_name": "INTELSAT 39 (IS-39)",
        "meta_object_id": "2019-049B",
        "meta_epoch": "2025-12-10T15:08:36.189888",
        "meta_mean_motion": 1.00270491,
        "meta_eccentricity": 9.698e-05,
        "meta_inclination": 0.018,
        "meta_ra_of_asc_node": 324.9405,
        "meta_arg_of_pericenter": 184.1246,
        "meta_mean_anomaly": 219.6342,
        "meta_ephemeris_type": 0,
        "meta_classification_type": "U",
        "meta_norad_cat_id": 44476,
        "meta_element_set_no": 999,
        "meta_rev_at_epoch": 2323,
        "meta_bstar": 0,
        "meta_mean_motion_dot": 3.8e-07,
        "meta_mean_motion_ddot": 0,
        "tle_line1": "1 44476U 19049B   25344.63097442  .00000038  00000+0  00000+0 0  9990",
        "tle_line2": "2 44476   0.0180 324.9405 0000969 184.1246 219.6342  1.00270491 23234"
      },
      "geometry": {
        "type": "Point",
        "coordinates": [
          107.6472861160836,
          0.02421483387739506
        ]
      }
    },
    {
      "type": "Feature",
      "properties": {
        "norad_id": 46114,
        "name": "GALAXY 30 (G-30)",
        "group": "intelsat",
        "lat": -0.02659741764111249,
        "lon": -79.28136669625769,
        "alt_km": 35776.72950401415,
        "timestamp": "2025-12-10T21:43:21.754591+00:00",
        "meta_object_name": "GALAXY 30 (G-30)",
        "meta_object_id": "2020-056C",
        "meta_epoch": "2025-12-10T10:25:19.291584",
        "meta_mean_motion": 1.00272067,
        "meta_eccentricity": 0.00023436,
        "meta_inclination": 0.017,
        "meta_ra_of_asc_node": 325.7585,
        "meta_arg_of_pericenter": 293.7361,
        "meta_mean_anomaly": 211.2428,
        "meta_ephemeris_type": 0,
        "meta_classification_type": "U",
        "meta_norad_cat_id": 46114,
        "meta_element_set_no": 999,
        "meta_rev_at_epoch": 1940,
        "meta_bstar": 0,
        "meta_mean_motion_dot": 4.1e-07,
        "meta_mean_motion_ddot": 0,
        "tle_line1": "1 46114U 20056C   25344.43425106  .00000041  00000+0  00000+0 0  9995",
        "tle_line2": "2 46114   0.0170 325.7585 0002343 293.7361 211.2428  1.00272067 19403"
      },
      "geometry": {
        "type": "Point",
        "coordinates": [
          -79.28136669625769,
          -0.02659741764111249
        ]
      }
    },
    {
      "type": "Feature",
      "properties": {
        "norad_id": 54026,
        "name": "GALAXY 33 (G-33)",
        "group": "intelsat",
        "lat": -0.02069312082594239,
        "lon": -87.27045240856549,
        "alt_km": 35777.27929587182,
        "timestamp": "2025-12-10T21:43:21.754603+00:00",
        "meta_object_name": "GALAXY 33 (G-33)",
        "meta_object_id": "2022-128A",
        "meta_epoch": "2025-12-10T11:08:38.645088",
        "meta_mean_motion": 1.0027273,
        "meta_eccentricity": 0.00021797,
        "meta_inclination": 0.0108,
        "meta_ra_of_asc_node": 311.8948,
        "meta_arg_of_pericenter": 297.9463,
        "meta_mean_anomaly": 223.7665,
        "meta_ephemeris_type": 0,
        "meta_classification_type": "U",
        "meta_norad_cat_id": 54026,
        "meta_element_set_no": 999,
        "meta_rev_at_epoch": 1185,
        "meta_bstar": 0,
        "meta_mean_motion_dot": 8.3e-07,
        "meta_mean_motion_ddot": 0,
        "tle_line1": "1 54026U 22128A   25344.46433617  .00000083  00000+0  00000+0 0  9993",
        "tle_line2": "2 54026   0.0108 311.8948 0002179 297.9463 223.7665  1.00272730 11859"
      },
      "geometry": {
        "type": "Point",
        "coordinates": [
          -87.27045240856549,
          -0.02069312082594239
        ]
      }
    },
    {
      "type": "Feature",
      "properties": {
        "norad_id": 54027,
        "name": "GALAXY 34 (G-34)",
        "group": "intelsat",
        "lat": -0.03465426353620542,
        "lon": -83.21277172394115,
        "alt_km": 35781.321697579166,
        "timestamp": "2025-12-10T21:43:21.754614+00:00",
        "meta_object_name": "GALAXY 34 (G-34)",
        "meta_object_id": "2022-128B",
        "meta_epoch": "2025-12-10T09:47:38.588064",
        "meta_mean_motion": 1.00270677,
        "meta_eccentricity": 0.00013213,
        "meta_inclination": 0.0236,
        "meta_ra_of_asc_node": 330.0219,
        "meta_arg_of_pericenter": 280.9634,
        "meta_mean_anomaly": 206.3809,
        "meta_ephemeris_type": 0,
        "meta_classification_type": "U",
        "meta_norad_cat_id": 54027,
        "meta_element_set_no": 999,
        "meta_rev_at_epoch": 1202,
        "meta_bstar": 0,
        "meta_mean_motion_dot": 0,
        "meta_mean_motion_ddot": 0,
        "tle_line1": "1 54027U 22128B   25344.40808551  .00000000  00000+0  00000+0 0  9990",
        "tle_line2": "2 54027   0.0236 330.0219 0001321 280.9634 206.3809  1.00270677 12021"
      },
      "geometry": {
        "type": "Point",
        "coordinates": [
          -83.21277172394115,
          -0.03465426353620542
        ]
      }
    },
    {
      "type": "Feature",
      "properties": {
        "norad_id": 54243,
        "name": "GALAXY 31 (G-31)",
        "group": "intelsat",
        "lat": -0.004707582824141961,
        "lon": -75.27631052724152,
        "alt_km": 35778.253980901514,
        "timestamp": "2025-12-10T21:43:21.754626+00:00",
        "meta_object_name": "GALAXY 31 (G-31)",
        "meta_object_id": "2022-153A",
        "meta_epoch": "2025-12-10T12:41:54.623616",
        "meta_mean_motion": 1.0027233,
        "meta_eccentricity": 0.00018592,
        "meta_inclination": 0.016,
        "meta_ra_of_asc_node": 257.0938,
        "meta_arg_of_pericenter": 14.4702,
        "meta_mean_anomaly": 237.4238,
        "meta_ephemeris_type": 0,
        "meta_classification_type": "U",
        "meta_norad_cat_id": 54243,
        "meta_element_set_no": 999,
        "meta_rev_at_epoch": 524,
        "meta_bstar": 0,
        "meta_mean_motion_dot": 1.7e-07,
        "meta_mean_motion_ddot": 0,
        "tle_line1": "1 54243U 22153A   25344.52910444  .00000017  00000+0  00000+0 0  9994",
        "tle_line2": "2 54243   0.0160 257.0938 0001859  14.4702 237.4238  1.00272330  5240"
      },
      "geometry": {
        "type": "Point",
        "coordinates": [
          -75.27631052724152,
          -0.004707582824141961
        ]
      }
    },
    {
      "type": "Feature",
      "properties": {
        "norad_id": 54244,
        "name": "GALAXY 32 (G-32)",
        "group": "intelsat",
        "lat": -0.012084014347602425,
        "lon": -45.294804898116766,
        "alt_km": 35775.08969493657,
        "timestamp": "2025-12-10T21:43:21.754637+00:00",
        "meta_object_name": "GALAXY 32 (G-32)",
        "meta_object_id": "2022-153B",
        "meta_epoch": "2025-12-10T02:50:17.145600",
        "meta_mean_motion": 1.00270509,
        "meta_eccentricity": 0.00027154,
        "meta_inclination": 0.0093,
        "meta_ra_of_asc_node": 341.2572,
        "meta_arg_of_pericenter": 328.5466,
        "meta_mean_anomaly": 80.861,
        "meta_ephemeris_type": 0,
        "meta_classification_type": "U",
        "meta_norad_cat_id": 54244,
        "meta_element_set_no": 999,
        "meta_rev_at_epoch": 1124,
        "meta_bstar": 0,
        "meta_mean_motion_dot": -1.71e-06,
        "meta_mean_motion_ddot": 0,
        "tle_line1": "1 54244U 22153B   25344.11825400 -.00000171  00000+0  00000+0 0  9999",
        "tle_line2": "2 54244   0.0093 341.2572 0002715 328.5466  80.8610  1.00270509 11241"
      },
      "geometry": {
        "type": "Point",
        "coordinates": [
          -45.294804898116766,
          -0.012084014347602425
        ]
      }
    }
  ]
}